[{"OBJECT_NAME":"STARLINK-31035","OBJECT_ID":"2023-192B","EPOCH":"2026-03-09T23:20:57.031584","MEAN_MOTION":15.30222302,"ECCENTRICITY":7.916e-5,"INCLINATION":53.1615,"RA_OF_ASC_NODE":48.2681,"ARG_OF_PERICENTER":112.6293,"MEAN_ANOMALY":247.4792,"EPHEMERIS_TYPE":0,"CLASSIFICATION_TYPE":"U","NORAD_CAT_ID":58532,"ELEMENT_SET_NO":999,"REV_AT_EPOCH":12621,"BSTAR":0.00015725891,"MEAN_MOTION_DOT":4.304e-5,"MEAN_MOTION_DDOT":0},{"OBJECT_NAME":"OBJECT BC","OBJECT_ID":"2025-313BC","EPOCH":"2026-03-09T04:33:08.504064","MEAN_MOTION":15.29126358,"ECCENTRICITY":0.00084789,"INCLINATION":97.3985,"RA_OF_ASC_NODE":144.811,"ARG_OF_PERICENTER":328.9209,"MEAN_ANOMALY":31.1528,"EPHEMERIS_TYPE":0,"CLASSIFICATION_TYPE":"U","NORAD_CAT_ID":67298,"ELEMENT_SET_NO":999,"REV_AT_EPOCH":789,"BSTAR":0.0026410397,"MEAN_MOTION_DOT":0.00075331,"MEAN_MOTION_DDOT":0}]
